GLOBALSTAR M024         
1 25883U 99043A   25024.24194083 -.00000061  00000+0  12389-3 0  9998
2 25883  52.0060 345.4139 0001142 216.8400 281.3856 11.10166557 98877
GLOBALSTAR M027         
1 25884U 99043B   25024.40023614 -.00000080  00000+0 -62382-3 0  9998
2 25884  52.0224  58.9630 0021729 120.0032 240.2920 11.04370681125350
GLOBALSTAR M054         
1 25885U 99043C   25023.89910578 -.00000040  00000+0  78953-3 0  9991
2 25885  52.0101 211.5953 0004628 296.1827 212.4041 11.39216012102609
GLOBALSTAR M053         
1 25886U 99043D   25024.56760664 -.00000064  00000+0  13785-3 0  9994
2 25886  51.9968 149.1179 0003777 179.5587 266.0092 11.27662667103246
GLOBALSTAR M058         
1 25907U 99049A   25024.55861422  .00000031  00000+0  15537-2 0  9996
2 25907  51.9934 132.7000 0001617  32.1752 327.9181 11.93194543524398
GLOBALSTAR M050         
1 25908U 99049B   25024.60159815 -.00000048  00000+0  45490-3 0  9990
2 25908  51.9977 150.9872 0010170 106.5406   8.3492 12.07448489130846
GLOBALSTAR M033         
1 25909U 99049C   25024.43483034 -.00000165  00000+0 -71019-3 0  9992
2 25909  51.9936  33.2057 0012878 327.5425  32.4629 12.20291584518198
GLOBALSTAR M055         
1 25910U 99049D   25024.43593214 -.00000060  00000+0  29210-3 0  9995
2 25910  52.0031  50.9494 0007223 191.1944 168.8747 12.29419554150609
